GSAT0101 (PRN E11)      
1 37846U 11060A   22076.15736522 -.00000068  00000+0  00000+0 0  9997
2 37846  56.9639  23.8454 0004131 352.6317   7.3440  1.70475042 64648
GSAT0102 (PRN E12)      
1 37847U 11060B   22077.53631925 -.00000068  00000+0  00000+0 0  9992
2 37847  56.9652  23.8075 0005283 331.2959 201.5209  1.70475323 64796
GSAT0103 (PRN E19)      
1 38857U 12055A   22076.78424827  .00000031  00000+0  00000+0 0  9995
2 38857  55.1092 144.2189 0004544 259.4877 100.5456  1.70473652 58541
GSAT0104 (PRN E20)      
1 38858U 12055B   22076.75451821  .00000031  00000+0  00000+0 0  9997
2 38858  55.1092 144.2209 0002162 250.2160 109.8450  1.70473908 58543
GSAT0201 (PRN E18)      
1 40128U 14050A   22077.11836024 -.00000064  00000+0  00000+0 0  9997
2 40128  50.3379 335.9225 1630321 120.7501 256.3120  1.85519206 49521
GSAT0202 (PRN E14)      
1 40129U 14050B   22076.30169746 -.00000063  00000+0  00000+0 0  9997
2 40129  50.3648 335.0128 1627401 121.5297 255.3880  1.85519827 51670
GSAT0203 (PRN E26)      
1 40544U 15017A   22077.11158723 -.00000068  00000+0  00000+0 0  9990
2 40544  56.7596  23.8651 0003994 284.8334  75.1051  1.70475670 42742
GSAT0204 (PRN E22)      
1 40545U 15017B   22076.19105433 -.00000069  00000+0  00000+0 0  9999
2 40545  56.7648  23.9023 0003233 274.3839  85.5613  1.70475523  5773
GSAT0205 (PRN E24)      
1 40889U 15045A   22077.13136810  .00000043  00000+0  00000+0 0  9990
2 40889  55.6853 264.4825 0005999  29.1427 330.8836  1.70473420 40554
GSAT0206 (PRN E30)      
1 40890U 15045B   22076.76556276  .00000044  00000+0  00000+0 0  9993
2 40890  55.6845 264.4885 0004145  26.7054 333.3112  1.70473548 40572
GSAT0209 (PRN E09)      
1 41174U 15079A   22076.35419439  .00000028  00000+0  00000+0 0  9992
2 41174  55.1251 143.9334 0004328 301.6504  58.3899  1.70474681 38305
GSAT0208 (PRN E08)      
1 41175U 15079B   22077.16023484  .00000033  00000+0  00000+0 0  9990
2 41175  55.1238 143.9100 0003650 299.7129  60.3376  1.70474982 38733
GSAT0211 (PRN E02)      
1 41549U 16030A   22076.69309608  .00000045  00000+0  00000+0 0  9998
2 41549  55.8294 264.4139 0004045 359.4059   0.5894  1.70474931 36185
GSAT0210 (PRN E01)      
1 41550U 16030B   22077.57234914  .00000041  00000+0  00000+0 0  9991
2 41550  55.8289 264.3910 0002206 338.7767  21.2040  1.70475051 36211
GSAT0207 (PRN E07)      
1 41859U 16069A   22076.64664768  .00000030  00000+0  00000+0 0  9994
2 41859  54.7850 144.1293 0004617 287.9327  72.1007  1.70473610 32931
GSAT0212 (PRN E03)      
1 41860U 16069B   22075.91346910  .00000025  00000+0  00000+0 0  9995
2 41860  54.7828 144.1474 0003049 308.5248  51.5271  1.70473666 33171
GSAT0213 (PRN E04)      
1 41861U 16069C   22077.45211165  .00000034  00000+0  00000+0 0  9990
2 41861  54.7854 144.1098 0004477 266.9030  93.1333  1.70473884 33066
GSAT0214 (PRN E05)      
1 41862U 16069D   22077.01261098  .00000032  00000+0  00000+0 0  9991
2 41862  54.7837 144.1166 0003562 269.2776  90.7672  1.70473779 33186
GSAT0215 (PRN E21)      
1 43055U 17079A   22077.50330636  .00000042  00000+0  00000+0 0  9999
2 43055  55.8047 264.2253 0001658 348.4007  11.5854  1.70474138 26533
GSAT0216 (PRN E25)      
1 43056U 17079B   22076.62243638  .00000045  00000+0  00000+0 0  9990
2 43056  55.8056 264.2494 0002859 314.2920  45.6803  1.70474334 26530
GSAT0217 (PRN E27)      
1 43057U 17079C   22077.42922835  .00000042  00000+0  00000+0 0  9990
2 43057  55.8022 264.2271 0003067 334.1847  25.7904  1.70474223 26536
GSAT0218 (PRN E31)      
1 43058U 17079D   22075.88949826  .00000047  00000+0  00000+0 0  9993
2 43058  55.8044 264.2668 0003039 304.1095  55.8623  1.70474276 26532
GSAT0221 (PRN E15)      
1 43564U 18060A   22076.96074205 -.00000068  00000+0  00000+0 0  9990
2 43564  57.1422  23.6615 0004983 296.8192  63.1124  1.70475501 22707
GSAT0222 (PRN E33)      
1 43565U 18060B   22077.18059087 -.00000068  00000+0  00000+0 0  9997
2 43565  57.1445  23.6558 0004842 305.0831  54.8543  1.70475455 22751
GSAT0219 (PRN E36)      
1 43566U 18060C   22076.22798828 -.00000068  00000+0  00000+0 0  9995
2 43566  57.1447  23.6836 0004563 306.8703  53.0698  1.70475522 22713
GSAT0220 (PRN E13)      
1 43567U 18060D   22077.03462001 -.00000068  00000+0  00000+0 0  9997
2 43567  57.1451  23.6626 0004621 302.0171  57.9206  1.70475401 22712
GSAT0223                
1 49809U 21116A   22076.60339410 -.00000068  00000+0  00000+0 0  9997
2 49809  57.1374  23.5730 0001358 274.2388 270.9927  1.70475623  1710
GSAT0224                
1 49810U 21116B   22076.40985394 -.00000068  00000+0  00000+0 0  9995
2 49810  57.1376  23.5763 0001244 305.0084 233.9338  1.70475598  1738
